TOMORROW-R2             
1 56962U 23084AG  26068.88846178  .00107013  00000+0  81619-3 0  9996
2 56962  97.5895 222.1734 0005114 248.1295 111.9424 15.71879583153326
STARLINK-11272 [DTC]    
1 60723U 24152D   26068.43374754 -.00001198  00000+0 -50300-5 0  9994
2 60723  53.1592 117.6102 0001366  74.9728 285.1442 15.69702564 88799
